{
  "type": "FeatureCollection",
  "features": [
    {
      "type": "Feature",
      "properties": {
        "norad_id": 66909,
        "name": "SILVERSAT",
        "group": "stations",
        "lat": 15.448349106582961,
        "lon": -42.66581577918345,
        "alt_km": 409.7420323511933,
        "timestamp": "2025-12-11T05:00:25.096259+00:00",
        "meta_object_name": "SILVERSAT",
        "meta_object_id": "1998-067XV",
        "meta_epoch": "2025-12-10T17:29:49.371360",
        "meta_mean_motion": 15.51224506,
        "meta_eccentricity": 0.00046681,
        "meta_inclination": 51.6307,
        "meta_ra_of_asc_node": 152.3636,
        "meta_arg_of_pericenter": 216.2554,
        "meta_mean_anomaly": 143.8119,
        "meta_ephemeris_type": 0,
        "meta_classification_type": "U",
        "meta_norad_cat_id": 66909,
        "meta_element_set_no": 999,
        "meta_rev_at_epoch": 130,
        "meta_bstar": 0.0015305983,
        "meta_mean_motion_dot": 0.00091869,
        "meta_mean_motion_ddot": 0,
        "tle_line1": "1 66909U 98067XV  25344.72904365  .00091869  00000+0  15306-2 0  9993",
        "tle_line2": "2 66909  51.6307 152.3636 0004668 216.2554 143.8119 15.51224506  1301"
      },
      "geometry": {
        "type": "Point",
        "coordinates": [
          -42.66581577918345,
          15.448349106582961
        ]
      }
    },
    {
      "type": "Feature",
      "properties": {
        "norad_id": 66910,
        "name": "1998-067XW",
        "group": "stations",
        "lat": 9.593721626218962,
        "lon": -37.73012039513121,
        "alt_km": 408.6641612015401,
        "timestamp": "2025-12-11T05:00:25.096270+00:00",
        "meta_object_name": "1998-067XW",
        "meta_object_id": "1998-067XW",
        "meta_epoch": "2025-12-10T11:16:54.563808",
        "meta_mean_motion": 15.51350337,
        "meta_eccentricity": 0.00055419,
        "meta_inclination": 51.6299,
        "meta_ra_of_asc_node": 153.6351,
        "meta_arg_of_pericenter": 197.1967,
        "meta_mean_anomaly": 162.8836,
        "meta_ephemeris_type": 0,
        "meta_classification_type": "U",
        "meta_norad_cat_id": 66910,
        "meta_element_set_no": 999,
        "meta_rev_at_epoch": 126,
        "meta_bstar": 0.0013818348,
        "meta_mean_motion_dot": 0.00083191,
        "meta_mean_motion_ddot": 0,
        "tle_line1": "1 66910U 98067XW  25344.47007597  .00083191  00000+0  13818-2 0  9993",
        "tle_line2": "2 66910  51.6299 153.6351 0005541 197.1967 162.8836 15.51350337  1261"
      },
      "geometry": {
        "type": "Point",
        "coordinates": [
          -37.73012039513121,
          9.593721626218962
        ]
      }
    },
    {
      "type": "Feature",
      "properties": {
        "norad_id": 66911,
        "name": "1998-067XX",
        "group": "stations",
        "lat": 7.46215453678303,
        "lon": -35.99683355984389,
        "alt_km": 408.4812652708015,
        "timestamp": "2025-12-11T05:00:25.096280+00:00",
        "meta_object_name": "1998-067XX",
        "meta_object_id": "1998-067XX",
        "meta_epoch": "2025-12-10T19:00:04.537152",
        "meta_mean_motion": 15.51590937,
        "meta_eccentricity": 0.00052987,
        "meta_inclination": 51.6296,
        "meta_ra_of_asc_node": 152.0318,
        "meta_arg_of_pericenter": 199.6569,
        "meta_mean_anomaly": 160.4217,
        "meta_ephemeris_type": 0,
        "meta_classification_type": "U",
        "meta_norad_cat_id": 66911,
        "meta_element_set_no": 999,
        "meta_rev_at_epoch": 130,
        "meta_bstar": 0.0015968411,
        "meta_mean_motion_dot": 0.0009721,
        "meta_mean_motion_ddot": 0,
        "tle_line1": "1 66911U 98067XX  25344.79171918  .00097210  00000+0  15968-2 0  9993",
        "tle_line2": "2 66911  51.6296 152.0318 0005298 199.6569 160.4217 15.51590937  1303"
      },
      "geometry": {
        "type": "Point",
        "coordinates": [
          -35.99683355984389,
          7.46215453678303
        ]
      }
    },
    {
      "type": "Feature",
      "properties": {
        "norad_id": 66912,
        "name": "1998-067XY",
        "group": "stations",
        "lat": 20.550136847852954,
        "lon": -47.28217209778674,
        "alt_km": 410.26209012897107,
        "timestamp": "2025-12-11T05:00:25.096290+00:00",
        "meta_object_name": "1998-067XY",
        "meta_object_id": "1998-067XY",
        "meta_epoch": "2025-12-10T17:31:22.847520",
        "meta_mean_motion": 15.50838333,
        "meta_eccentricity": 0.00047912,
        "meta_inclination": 51.6309,
        "meta_ra_of_asc_node": 152.3712,
        "meta_arg_of_pericenter": 213.0974,
        "meta_mean_anomaly": 146.9716,
        "meta_ephemeris_type": 0,
        "meta_classification_type": "U",
        "meta_norad_cat_id": 66912,
        "meta_element_set_no": 999,
        "meta_rev_at_epoch": 129,
        "meta_bstar": 0.0011490073,
        "meta_mean_motion_dot": 0.00067697,
        "meta_mean_motion_ddot": 0,
        "tle_line1": "1 66912U 98067XY  25344.73012555  .00067697  00000+0  11490-2 0  9991",
        "tle_line2": "2 66912  51.6309 152.3712 0004791 213.0974 146.9716 15.50838333  1293"
      },
      "geometry": {
        "type": "Point",
        "coordinates": [
          -47.28217209778674,
          20.550136847852954
        ]
      }
    }
  ]
}